start=new Date('2023-05-26T00:00:00.000Z').valueOf();
sats=[{"EPHEMERIS_TYPE":"0","REF_FRAME":"TEME","BSTAR":"0.00131890000000","TLE_LINE1":"1 47565U 21009T   23145.73765202  .00019425  00000-0  13189-2 0  9991","TIME_SYSTEM":"UTC","MEAN_MOTION":"15.06412722","ECCENTRICITY":"0.00012790","LAUNCH_DATE":"2021-02-04","EPOCH":"2023-05-25T17:42:13.134528","NORAD_CAT_ID":"47565","CENTER_NAME":"EARTH","DECAY_DATE":null,"FILE":"3917122","SEMIMAJOR_AXIS":"6925.310","OBJECT_ID":"2021-009T","RCS_SIZE":"LARGE","OBJECT_TYPE":"PAYLOAD","SITE":"AFETR","REV_AT_EPOCH":"12735","ARG_OF_PERICENTER":"56.0531","GP_ID":"232512990","INCLINATION":"53.0540","CLASSIFICATION_TYPE":"U","ELEMENT_SET_NO":"999","PERIOD":"95.591","COUNTRY_CODE":"US","OBJECT_NAME":"STARLINK-1964","RA_OF_ASC_NODE":"265.8758","TLE_LINE2":"2 47565  53.0540 265.8758 0001279  56.0531 304.0580 15.06412722127354","MEAN_ANOMALY":"304.0580","MEAN_MOTION_DOT":"0.00019425","MEAN_ELEMENT_THEORY":"SGP4","MEAN_MOTION_DDOT":"0.0000000000000","PERIAPSIS":"546.289","APOAPSIS":"548.060"},{"INCLINATION":"53.0533","CLASSIFICATION_TYPE":"U","GP_ID":"232513741","REV_AT_EPOCH":"12752","SITE":"AFETR","ARG_OF_PERICENTER":"93.1395","APOAPSIS":"548.111","MEAN_MOTION_DOT":"0.00019805","MEAN_ELEMENT_THEORY":"SGP4","MEAN_MOTION_DDOT":"0.0000000000000","PERIAPSIS":"546.310","OBJECT_NAME":"STARLINK-1965","COUNTRY_CODE":"US","RA_OF_ASC_NODE":"255.0047","MEAN_ANOMALY":"266.9742","TLE_LINE2":"2 47566  53.0533 255.0047 0001300  93.1395 266.9742 15.06400946127524","ELEMENT_SET_NO":"999","PERIOD":"95.592","EPOCH":"2023-05-25T22:19:32.717856","LAUNCH_DATE":"2021-02-04","BSTAR":"0.00134470000000","TLE_LINE1":"1 47566U 21009U   23145.93023979  .00019805  00000-0  13447-2 0  9991","TIME_SYSTEM":"UTC","ECCENTRICITY":"0.00013000","MEAN_MOTION":"15.06400946","EPHEMERIS_TYPE":"0","REF_FRAME":"TEME","OBJECT_TYPE":"PAYLOAD","RCS_SIZE":"LARGE","SEMIMAJOR_AXIS":"6925.346","OBJECT_ID":"2021-009U","NORAD_CAT_ID":"47566","DECAY_DATE":null,"CENTER_NAME":"EARTH","FILE":"3917122"},{"SITE":"AFETR","REV_AT_EPOCH":"12694","ARG_OF_PERICENTER":"66.9705","GP_ID":"232512489","INCLINATION":"53.0546","CLASSIFICATION_TYPE":"U","ELEMENT_SET_NO":"999","PERIOD":"95.592","COUNTRY_CODE":"US","OBJECT_NAME":"STARLINK-1966","RA_OF_ASC_NODE":"295.4351","TLE_LINE2":"2 47567  53.0546 295.4351 0000676  66.9705 293.1356 15.06408481126943","MEAN_ANOMALY":"293.1356","MEAN_MOTION_DOT":"0.00005061","MEAN_ELEMENT_THEORY":"SGP4","MEAN_MOTION_DDOT":"0.0000000000000","PERIAPSIS":"546.719","APOAPSIS":"547.656","EPHEMERIS_TYPE":"0","REF_FRAME":"TEME","BSTAR":"0.00035834000000","TLE_LINE1":"1 47567U 21009V   23145.83440565  .00005061  00000-0  35834-3 0  9999","TIME_SYSTEM":"UTC","MEAN_MOTION":"15.06408481","ECCENTRICITY":"0.00006760","LAUNCH_DATE":"2021-02-04","EPOCH":"2023-05-25T20:01:32.648160","NORAD_CAT_ID":"47567","DECAY_DATE":null,"CENTER_NAME":"EARTH","FILE":"3917122","SEMIMAJOR_AXIS":"6925.323","OBJECT_ID":"2021-009V","RCS_SIZE":"LARGE","OBJECT_TYPE":"PAYLOAD"},{"TLE_LINE2":"2 47568  53.0561 296.5170 0001995 100.6928 259.4285 15.06408558127515","MEAN_ANOMALY":"259.4285","RA_OF_ASC_NODE":"296.5170","COUNTRY_CODE":"US","OBJECT_NAME":"STARLINK-1967","PERIOD":"95.592","ELEMENT_SET_NO":"999","APOAPSIS":"548.569","PERIAPSIS":"545.806","MEAN_MOTION_DDOT":"0.0000000000000","MEAN_ELEMENT_THEORY":"SGP4","MEAN_MOTION_DOT":"0.00000019","ARG_OF_PERICENTER":"100.6928","REV_AT_EPOCH":"12751","SITE":"AFETR","CLASSIFICATION_TYPE":"U","INCLINATION":"53.0561","GP_ID":"232491026","SEMIMAJOR_AXIS":"6925.322","OBJECT_ID":"2021-009W","FILE":"3917030","DECAY_DATE":null,"CENTER_NAME":"EARTH","NORAD_CAT_ID":"47568","OBJECT_TYPE":"PAYLOAD","RCS_SIZE":"LARGE","ECCENTRICITY":"0.00019950","MEAN_MOTION":"15.06408558","TIME_SYSTEM":"UTC","TLE_LINE1":"1 47568U 21009W   23145.59482360  .00000019  00000-0  20207-4 0  9999","BSTAR":"0.00002020700000","EPHEMERIS_TYPE":"0","REF_FRAME":"TEME","EPOCH":"2023-05-25T14:16:32.759040","LAUNCH_DATE":"2021-02-04"},{"TIME_SYSTEM":"UTC","BSTAR":"0.00122660000000","TLE_LINE1":"1 47570U 21009Y   23144.59224876  .00018043  00000-0  12266-2 0  9997","ECCENTRICITY":"0.00013170","MEAN_MOTION":"15.06415307","EPHEMERIS_TYPE":"0","REF_FRAME":"TEME","EPOCH":"2023-05-24T14:12:50.292864","LAUNCH_DATE":"2021-02-04","SEMIMAJOR_AXIS":"6925.302","OBJECT_ID":"2021-009Y","CENTER_NAME":"EARTH","DECAY_DATE":null,"NORAD_CAT_ID":"47570","FILE":"3916549","OBJECT_TYPE":"PAYLOAD","RCS_SIZE":"LARGE","REV_AT_EPOCH":"12732","SITE":"AFETR","ARG_OF_PERICENTER":"68.5452","CLASSIFICATION_TYPE":"U","INCLINATION":"53.0537","GP_ID":"232447547","RA_OF_ASC_NODE":"261.0131","OBJECT_NAME":"STARLINK-1969","COUNTRY_CODE":"US","TLE_LINE2":"2 47570  53.0537 261.0131 0001317  68.5452 291.5677 15.06415307127328","MEAN_ANOMALY":"291.5677","ELEMENT_SET_NO":"999","PERIOD":"95.591","APOAPSIS":"548.079","MEAN_ELEMENT_THEORY":"SGP4","MEAN_MOTION_DOT":"0.00018043","PERIAPSIS":"546.255","MEAN_MOTION_DDOT":"0.0000000000000"},{"MEAN_MOTION_DDOT":"0.0000000000000","PERIAPSIS":"546.236","MEAN_MOTION_DOT":"0.00007576","MEAN_ELEMENT_THEORY":"SGP4","APOAPSIS":"548.148","PERIOD":"95.592","ELEMENT_SET_NO":"999","TLE_LINE2":"2 47571  53.0539 266.4960 0001380 137.6190 222.4906 15.06407020127935","MEAN_ANOMALY":"222.4906","COUNTRY_CODE":"US","OBJECT_NAME":"STARLINK-1970","RA_OF_ASC_NODE":"266.4960","GP_ID":"232489633","INCLINATION":"53.0539","CLASSIFICATION_TYPE":"U","ARG_OF_PERICENTER":"137.6190","REV_AT_EPOCH":"12793","SITE":"AFETR","RCS_SIZE":"LARGE","OBJECT_TYPE":"PAYLOAD","FILE":"3916983","NORAD_CAT_ID":"47571","DECAY_DATE":null,"CENTER_NAME":"EARTH","SEMIMAJOR_AXIS":"6925.327","OBJECT_ID":"2021-009Z","LAUNCH_DATE":"2021-02-04","EPOCH":"2023-05-25T14:20:31.452000","EPHEMERIS_TYPE":"0","REF_FRAME":"TEME","ECCENTRICITY":"0.00013800","MEAN_MOTION":"15.06407020","TLE_LINE1":"1 47571U 21009Z   23145.59758625  .00007576  00000-0  52683-3 0  9990","BSTAR":"0.00052683000000","TIME_SYSTEM":"UTC"},{"APOAPSIS":"547.800","MEAN_ELEMENT_THEORY":"SGP4","MEAN_MOTION_DOT":"0.00000355","PERIAPSIS":"546.565","MEAN_MOTION_DDOT":"0.0000000000000","RA_OF_ASC_NODE":"266.5833","COUNTRY_CODE":"US","OBJECT_NAME":"STARLINK-1971","TLE_LINE2":"2 47572  53.0537 266.5833 0000892  82.6761 277.4329 15.06410191127936","MEAN_ANOMALY":"277.4329","ELEMENT_SET_NO":"999","PERIOD":"95.591","CLASSIFICATION_TYPE":"U","INCLINATION":"53.0537","GP_ID":"232489631","REV_AT_EPOCH":"12793","SITE":"AFETR","ARG_OF_PERICENTER":"82.6761","OBJECT_TYPE":"PAYLOAD","RCS_SIZE":"LARGE","SEMIMAJOR_AXIS":"6925.317","OBJECT_ID":"2021-009AA","DECAY_DATE":null,"CENTER_NAME":"EARTH","NORAD_CAT_ID":"47572","FILE":"3916983","EPOCH":"2023-05-25T13:53:59.241696","LAUNCH_DATE":"2021-02-04","TIME_SYSTEM":"UTC","BSTAR":"0.00004272300000","TLE_LINE1":"1 47572U 21009AA  23145.57915789  .00000355  00000-0  42723-4 0  9998","ECCENTRICITY":"0.00008920","MEAN_MOTION":"15.06410191","EPHEMERIS_TYPE":"0","REF_FRAME":"TEME"},{"GP_ID":"232512239","INCLINATION":"53.0546","CLASSIFICATION_TYPE":"U","ARG_OF_PERICENTER":"102.9232","REV_AT_EPOCH":"12735","SITE":"AFETR","MEAN_MOTION_DDOT":"0.0000000000000","PERIAPSIS":"546.430","MEAN_MOTION_DOT":"-0.00003040","MEAN_ELEMENT_THEORY":"SGP4","APOAPSIS":"547.948","PERIOD":"95.592","ELEMENT_SET_NO":"999","MEAN_ANOMALY":"257.1879","TLE_LINE2":"2 47573  53.0546 265.7882 0001096 102.9232 257.1879 15.06408045127354","OBJECT_NAME":"STARLINK-1975","COUNTRY_CODE":"US","RA_OF_ASC_NODE":"265.7882","LAUNCH_DATE":"2021-02-04","EPOCH":"2023-05-25T18:08:45.171168","EPHEMERIS_TYPE":"0","REF_FRAME":"TEME","ECCENTRICITY":"0.00010960","MEAN_MOTION":"15.06408045","TLE_LINE1":"1 47573U 21009AB  23145.75607837 -.00003040  00000-0 -18526-3 0  9990","BSTAR":"-0.00018526000000","TIME_SYSTEM":"UTC","RCS_SIZE":"LARGE","OBJECT_TYPE":"PAYLOAD","FILE":"3917122","NORAD_CAT_ID":"47573","DECAY_DATE":null,"CENTER_NAME":"EARTH","SEMIMAJOR_AXIS":"6925.324","OBJECT_ID":"2021-009AB"},{"SITE":"AFETR","REV_AT_EPOCH":"12676","ARG_OF_PERICENTER":"88.5457","INCLINATION":"53.0547","CLASSIFICATION_TYPE":"U","GP_ID":"232448048","OBJECT_NAME":"STARLINK-1976","COUNTRY_CODE":"US","RA_OF_ASC_NODE":"300.7822","TLE_LINE2":"2 47574  53.0547 300.7822 0000395  88.5457 271.5577 15.06436366126765","MEAN_ANOMALY":"271.5577","ELEMENT_SET_NO":"999","PERIOD":"95.590","APOAPSIS":"547.376","MEAN_MOTION_DOT":"0.00017727","MEAN_ELEMENT_THEORY":"SGP4","MEAN_MOTION_DDOT":"0.0000000000000","PERIAPSIS":"546.829","BSTAR":"0.00120480000000","TLE_LINE1":"1 47574U 21009AC  23144.64385308  .00017727  00000-0  12048-2 0  9991","TIME_SYSTEM":"UTC","MEAN_MOTION":"15.06436366","ECCENTRICITY":"0.00003950","REF_FRAME":"TEME","EPHEMERIS_TYPE":"0","EPOCH":"2023-05-24T15:27:08.906112","LAUNCH_DATE":"2021-02-04","SEMIMAJOR_AXIS":"6925.237","OBJECT_ID":"2021-009AC","NORAD_CAT_ID":"47574","DECAY_DATE":null,"CENTER_NAME":"EARTH","FILE":"3916549","OBJECT_TYPE":"PAYLOAD","RCS_SIZE":"LARGE"},{"RCS_SIZE":"LARGE","OBJECT_TYPE":"PAYLOAD","CENTER_NAME":"EARTH","DECAY_DATE":null,"NORAD_CAT_ID":"47575","FILE":"3917122","SEMIMAJOR_AXIS":"6925.332","OBJECT_ID":"2021-009AD","LAUNCH_DATE":"2021-02-04","EPOCH":"2023-05-25T19:50:55.487040","REF_FRAME":"TEME","EPHEMERIS_TYPE":"0","TIME_SYSTEM":"UTC","BSTAR":"0.00037028000000","TLE_LINE1":"1 47575U 21009AD  23145.82703110  .00005239  00000-0  37028-3 0  9999","ECCENTRICITY":"0.00011440","MEAN_MOTION":"15.06405509","MEAN_ELEMENT_THEORY":"SGP4","MEAN_MOTION_DOT":"0.00005239","PERIAPSIS":"546.404","MEAN_MOTION_DDOT":"0.0000000000000","APOAPSIS":"547.989","ELEMENT_SET_NO":"999","PERIOD":"95.592","RA_OF_ASC_NODE":"295.4693","COUNTRY_CODE":"US","OBJECT_NAME":"STARLINK-1977","TLE_LINE2":"2 47575  53.0549 295.4693 0001144 100.3833 259.7285 15.06405509126947","MEAN_ANOMALY":"259.7285","GP_ID":"232513742","CLASSIFICATION_TYPE":"U","INCLINATION":"53.0549","SITE":"AFETR","REV_AT_EPOCH":"12694","ARG_OF_PERICENTER":"100.3833"}];
